#aV2013 12  1  0  0  0.00000000     288 DD+AD WGS84 FIT  NGA
## 1769      0.00000000   300.00000000 56627 0.0000000000000
+   31     1  2  3  4  5  6  7  8  9 10 11 12 13 14 15 16 17
+         18 19 20 21 22 23 24 25 26 27 28 29 31 32  0  0  0
+          0  0  0  0  0  0  0  0  0  0  0  0  0  0  0  0  0
+          0  0  0  0  0  0  0  0  0  0  0  0  0  0  0  0  0
+          0  0  0  0  0  0  0  0  0  0  0  0  0  0  0  0  0
++         2  2  2  2  2  2  2  2  2  2  2  2  2  2  2  2  2
++         2  2  2  2  2  2  2  2  2  2  2  2  2  2  0  0  0
++         0  0  0  0  0  0  0  0  0  0  0  0  0  0  0  0  0
++         0  0  0  0  0  0  0  0  0  0  0  0  0  0  0  0  0
++         0  0  0  0  0  0  0  0  0  0  0  0  0  0  0  0  0
%c cc cc ccc ccc cccc cccc cccc cccc ccccc ccccc ccccc ccccc
%c cc cc ccc ccc cccc cccc cccc cccc ccccc ccccc ccccc ccccc
%f  0.0000000  0.000000000  0.00000000000  0.000000000000000
%f  0.0000000  0.000000000  0.00000000000  0.000000000000000
%i    0    0    0    0      0      0      0      0         0
%i    0    0    0    0      0      0      0      0         0
/*      NGA, ST. LOUIS,MO.                                  
/*   EPHEMERIS COMPUTED FROM  1 DAYS OF DATA                
/*   EPOCHA SMOOTHER                                       
/* CCCCCCCCCCCCCCCCCCCCCCCCCCCCCCCCCCCCCCCCCCCCCCCCCCCCCCCCC
*  2013 12  1 16 15  0.00000000
P  1  20846.136051  13660.931009  -9375.641163     90.712444                    
V  1 -12009.770464  -1291.571241 -28581.115065      0.030291                    
P  2    678.434404 -16133.339877  21377.793961    464.466381                    
V  2  25595.529754   7314.893188   4255.069750      0.021488                    
P  3  -2802.653619  21581.161807 -15647.202759    293.613120                    
V  3 -13953.217951  13200.374633  21622.612321      0.048881                    
P  4  16548.246719  -9037.367774  18494.066818      3.786446                    
V  4  22501.117391   8837.865851 -15307.246739      0.004079                    
P  5  -1478.600939 -25805.693939   5699.312854   -396.417448                    
V  5   4747.952217   6462.276451  30445.192862      0.008531                    
P  6 -10689.696707  21797.261618 -10245.300904    174.342458                    
V  6 -11561.873257   7263.423388  27758.505871      0.166979                    
P  7  25714.134865   5354.489255  -4910.062124    286.806043                    
V  7   5235.454091   4002.561729  31036.872002      0.042023                    
P  8  21955.571111   -784.243081 -15215.312918     10.265558                    
V  8  17171.993918   8780.153871  23514.708386      0.003301                    
P  9  21457.195311  -4121.667359 -15731.093838    287.220526                    
V  9  17627.907908   6981.422516  22858.203850      0.028466                    
P 10  10912.488625 -14747.285586  18731.922289   -104.080050                    
V 10   6724.673852  23810.078319  15001.612174     -0.015260                    
P 11  15435.908590  13930.541239 -17124.213754   -442.897656                    
V 11 -21049.914155   2567.449100 -17140.451091     -0.034143                    
P 12 -11135.226968 -21661.822748  10797.547282    171.398308                    
V 12   -823.735650 -13743.517205 -28095.887576      0.022883                    
P 13  20425.009610   -930.874520  16899.689153     54.319729                    
V 13 -16606.297040  13899.542686  20537.374357     -0.037519                    
P 14 -21683.495481  14995.777172  -2279.844411    209.077484                    
V 14    906.189863  -3980.045484 -31931.459774     -0.011017                    
P 15  -6533.895724 -14990.800115 -20921.765669   -149.986058                    
V 15  19725.781000 -17888.030931   6948.502413     -0.019626                    
P 16    380.211185  25770.121121   5592.220094   -240.194163                    
V 16  -3314.307285  -6749.500571  31490.696563      0.011503                    
P 17  21308.045012 -15354.431293  -2711.596310    -45.966706                    
V 17  -1068.871787   4571.232130 -31807.758827     -0.035030                    
P 18 -16316.590272  -2837.577057 -20394.190117    288.036367                    
V 18  -5016.117708 -26481.315930   7206.472279      0.021298                    
P 19   3414.049347  15774.560408 -21137.310993   -422.406025                    
V 19 -21823.153735  15297.196899   8355.943298     -0.026050                    
P 20  14798.136763  18037.343780  12577.533540    141.201644                    
V 20   1369.645930  16556.105658 -24905.471827      0.029779                    
P 21 -25728.416879  -3309.479065  -6195.580726   -331.071314                    
V 21  -7168.499452  -5708.129875  29445.822651     -0.017463                    
P 22 -13034.655909  11168.175904 -20037.762706    198.259291                    
V 22  -6873.397297 -25174.552140  -9615.214035      0.023229                    
P 23  13606.149015   8224.429525  21416.436562     25.307073                    
V 23 -19926.601063  18142.806439   5319.860153     -0.033413                    
P 24 -17560.797580 -15085.789480 -13083.632605    -18.378793                    
V 24  16519.826503   2736.925013 -25266.325138     -0.006775                    
P 25 -15500.705091  -9760.854420  19216.903492    171.103584                    
V 25  -4195.477554 -24106.452649 -15478.901331      0.029371                    
P 26   7345.484879 -19618.374488 -16779.720890    234.194578                    
V 26  17083.475719 -10862.035228  21303.339844     -0.104422                    
P 27  -8612.323012  20951.919752 -13858.985598     -4.577813                    
V 27 -14448.229647  10265.212025  24529.198610     -0.031311                    
P 28  13169.546385  -7215.160079 -21288.789343    313.167423                    
V 28   4863.250922  28010.711174  -6469.505293      0.029331                    
P 29 -17981.452865  -2537.803508  19410.942585    491.595574                    
V 29  18217.402768 -16502.686886  14785.954470      0.031854                    
P 31 -14057.093266   9717.223905  20584.035506    330.523051                    
V 31 -23952.887390  -9108.196691 -11870.035497      0.005574                    
P 32   6701.914228  25583.398431   4735.225618   -522.429008                    
V 32  -1899.513404   6115.800537 -30379.099427      0.050428                    
EOF
